NORAD_CAT_ID,OBJECT_NAME,OBJECT_TYPE,EPOCH,MEAN_MOTION,ECCENTRICITY,INCLINATION,RA_OF_ASC_NODE,ARG_OF_PERICENTER,MEAN_ANOMALY,BSTAR,MEAN_MOTION_DOT,MEAN_MOTION_DDOT,TLE_LINE0,TLE_LINE1,TLE_LINE2,SEMIMAJOR_AXIS,PERIOD,APOGEE,PERIGEE,DECAYED
52556.0,STARLINK-3763,PAYLOAD,2024-03-31 20:36:18,15.12114166,0.0001373,53.2196,53.6458,91.7751,268.34,-1.6516e-05,-5.85e-06,0.0,0 STARLINK-3763,1 52556U 22051Z   24091.85854640 -.00000585  00000-0 -16516-4 0  9992,2 52556  53.2196  53.6458 0001373  91.7751 268.3400 15.12114166104844,6907.891,95.231,530.704,528.807,0.0
52556.0,STARLINK-3763,PAYLOAD,2024-04-01 14:03:16,15.12113129,0.0001305,53.2191,50.366,95.1696,264.9447,-6.3385e-05,-1.401e-05,0.0,0 STARLINK-3763,1 52556U 22051Z   24092.58560900 -.00001401  00000-0 -63385-4 0  9990,2 52556  53.2191  50.3660 0001305  95.1696 264.9447 15.12113129104884,6907.894,95.231,530.66,528.857,0.0
52556.0,STARLINK-3763,PAYLOAD,2024-04-02 04:19:53,15.12111046,0.0001285,53.2187,47.6815,95.7402,264.3738,1.9106e-05,3.5e-07,0.0,0 STARLINK-3763,1 52556U 22051Z   24093.18047708  .00000035  00000-0  19106-4 0  9995,2 52556  53.2187  47.6815 0001285  95.7402 264.3738 15.12111046105040,6907.9,95.231,530.653,528.877,0.0
52556.0,STARLINK-3763,PAYLOAD,2024-04-02 13:50:57,15.12114964,0.000128,53.2187,45.8919,91.1279,268.9861,4.9718e-06,-2.11e-06,0.0,0 STARLINK-3763,1 52556U 22051Z   24093.57705401 -.00000211  00000-0  49718-5 0  9999,2 52556  53.2187  45.8919 0001280  91.1279 268.9861 15.12114964105030,6907.888,95.231,530.637,528.869,0.0
52556.0,STARLINK-3763,PAYLOAD,2024-04-03 05:42:44,15.12114457,0.0001234,53.2185,42.9095,89.3424,270.7711,-4.9751e-06,-3.84e-06,0.0,0 STARLINK-3763,1 52556U 22051Z   24094.23801853 -.00000384  00000-0 -49751-5 0  9990,2 52556  53.2185  42.9095 0001234  89.3424 270.7711 15.12114457105202,6907.89,95.231,530.607,528.902,0.0
52556.0,STARLINK-3763,PAYLOAD,2024-04-03 13:38:38,15.12113609,0.0001238,53.2185,41.4181,86.6649,273.4486,5.8283e-06,-1.96e-06,0.0,0 STARLINK-3763,1 52556U 22051Z   24094.56850096 -.00000196  00000-0  58283-5 0  9999,2 52556  53.2185  41.4181 0001238  86.6649 273.4486 15.12113609105189,6907.892,95.231,530.613,528.902,0.0
52556.0,STARLINK-3763,PAYLOAD,2024-04-04 13:26:19,15.12115946,0.0001246,53.2189,36.9455,85.8763,274.2373,-9.8329e-06,-4.69e-06,0.0,0 STARLINK-3763,1 52556U 22051Z   24095.55994638 -.00000469  00000-0 -98329-5 0  9999,2 52556  53.2189  36.9455 0001246  85.8763 274.2373 15.12115946105408,6907.885,95.231,530.611,528.889,0.0
52556.0,STARLINK-3763,PAYLOAD,2024-04-05 05:18:05,15.12130648,0.0001214,53.2187,33.9651,85.0319,275.0813,0.00012504,1.883e-05,0.0,0 STARLINK-3763,1 52556U 22051Z   24096.22089430  .00001883  00000-0  12504-3 0  9997,2 52556  53.2187  33.9651 0001214  85.0319 275.0813 15.12130648105500,6907.84,95.23,530.544,528.867,0.0
52556.0,STARLINK-3763,PAYLOAD,2024-04-05 13:13:59,15.12124153,0.0001219,53.2181,32.4707,94.2677,265.8456,6.0949e-05,7.65e-06,0.0,0 STARLINK-3763,1 52556U 22051Z   24096.55138016  .00000765  00000-0  60949-4 0  9993,2 52556  53.2181  32.4707 0001219  94.2677 265.8456 15.12124153105553,6907.86,95.23,530.567,528.883,0.0
52556.0,STARLINK-3763,PAYLOAD,2024-04-06 05:05:47,15.12111801,0.0001391,53.2195,29.4875,106.305,253.8097,1.9858e-05,4.9e-07,0.0,0 STARLINK-3763,1 52556U 22051Z   24097.21235185  .00000049  00000-0  19858-4 0  9990,2 52556  53.2195  29.4875 0001391 106.3050 253.8097 15.12111801105656,6907.898,95.231,530.724,528.802,0.0
52556.0,STARLINK-3763,PAYLOAD,2024-04-06 13:01:41,15.12111267,0.0001337,53.2191,27.9971,104.1915,255.9227,-9.988e-06,-4.71e-06,0.0,0 STARLINK-3763,1 52556U 22051Z   24097.54283598 -.00000471  00000-0 -99880-5 0  9992,2 52556  53.2191  27.9971 0001337 104.1915 255.9227 15.12111267105630,6907.899,95.231,530.688,528.841,0.0
52556.0,STARLINK-3763,PAYLOAD,2024-04-06 22:32:45,15.12116086,0.000136,53.219,26.2072,106.0128,254.1016,-1.1119e-05,-4.91e-06,0.0,0 STARLINK-3763,1 52556U 22051Z   24097.93941130 -.00000491  00000-0 -11119-4 0  9998,2 52556  53.2190  26.2072 0001360 106.0128 254.1016 15.12116086105693,6907.885,95.231,530.689,528.81,0.0
52556.0,STARLINK-3763,PAYLOAD,2024-04-07 04:53:28,15.12117609,0.0001351,53.2194,25.0151,105.9194,254.1949,-8.6029e-05,-1.796e-05,0.0,0 STARLINK-3763,1 52556U 22051Z   24098.20379866 -.00001796  00000-0 -86029-4 0  9991,2 52556  53.2194  25.0151 0001351 105.9194 254.1949 15.12117609105735,6907.88,95.231,530.678,528.812,0.0
52556.0,STARLINK-3763,PAYLOAD,2024-04-07 22:20:26,15.12112209,0.0001294,53.2196,21.7367,90.6361,269.4781,2.8783e-05,2.04e-06,0.0,0 STARLINK-3763,1 52556U 22051Z   24098.93085752  .00000204  00000-0  28783-4 0  9993,2 52556  53.2196  21.7367 0001294  90.6361 269.4781 15.12112209105847,6907.897,95.231,530.655,528.868,0.0
52556.0,STARLINK-3763,PAYLOAD,2024-04-08 04:41:09,15.12112328,0.000125,53.2195,20.5436,91.3032,268.8105,8.3296e-06,-1.52e-06,0.0,0 STARLINK-3763,1 52556U 22051Z   24099.19524418 -.00000152  00000-0  83296-5 0  9993,2 52556  53.2195  20.5436 0001250  91.3032 268.8105 15.12112328105952,6907.896,95.231,530.625,528.898,0.0
52556.0,STARLINK-3763,PAYLOAD,2024-04-08 23:43:17,15.12112297,0.0001198,53.2193,16.9649,89.4857,270.6274,3.322e-05,2.81e-06,0.0,0 STARLINK-3763,1 52556U 22051Z   24099.98840017  .00000281  00000-0  33220-4 0  9999,2 52556  53.2193  16.9649 0001198  89.4857 270.6274 15.12112297106009,6907.896,95.231,530.589,528.934,0.0
52556.0,STARLINK-3763,PAYLOAD,2024-04-09 10:49:33,15.12110622,0.0001122,53.2188,14.8783,84.5514,275.5608,-9.5727e-06,-4.64e-06,0.0,0 STARLINK-3763,1 52556U 22051Z   24100.45107808 -.00000464  00000-0 -95727-5 0  9994,2 52556  53.2188  14.8783 0001122  84.5514 275.5608 15.12110622106142,6907.901,95.231,530.541,528.991,0.0
52556.0,STARLINK-3763,PAYLOAD,2024-04-10 10:37:14,15.12111041,0.0001028,53.2178,10.4047,80.4914,279.6195,-2.4433e-05,-7.23e-06,0.0,0 STARLINK-3763,1 52556U 22051Z   24101.44252419 -.00000723  00000-0 -24433-4 0  9996,2 52556  53.2178  10.4047 0001028  80.4914 279.6195 15.12111041106221,6907.9,95.231,530.475,529.055,0.0
52556.0,STARLINK-3763,PAYLOAD,2024-04-10 21:43:29,15.12109577,0.0001085,53.218,8.3168,78.0203,282.0912,-2.7042e-05,-7.68e-06,0.0,0 STARLINK-3763,1 52556U 22051Z   24101.90520083 -.00000768  00000-0 -27042-4 0  9990,2 52556  53.2180   8.3168 0001085  78.0203 282.0912 15.12109577106362,6907.905,95.231,530.519,529.02,0.0
52556.0,STARLINK-3763,PAYLOAD,2024-04-11 10:24:54,15.12113402,0.0001145,53.2184,5.9312,79.259,280.8532,1.4373e-05,-4.7e-07,0.0,0 STARLINK-3763,1 52556U 22051Z   24102.43396855 -.00000047  00000-0  14373-4 0  9999,2 52556  53.2184   5.9312 0001145  79.2590 280.8532 15.12113402106376,6907.893,95.231,530.549,528.967,0.0
52556.0,STARLINK-3763,PAYLOAD,2024-04-11 21:31:09,15.12115446,0.0001214,53.2189,3.8434,86.487,273.6262,-5.8242e-06,-3.99e-06,0.0,0 STARLINK-3763,1 52556U 22051Z   24102.89664288 -.00000399  00000-0 -58242-5 0  9992,2 52556  53.2189   3.8434 0001214  86.4870 273.6262 15.12115446106517,6907.887,95.231,530.59,528.913,0.0
52556.0,STARLINK-3763,PAYLOAD,2024-04-12 02:16:42,15.1211035,0.0001156,53.2187,2.949,91.5987,268.5139,-4.8284e-08,-2.98e-06,0.0,0 STARLINK-3763,1 52556U 22051Z   24103.09493468 -.00000298  00000-0 -48284-7 0  9990,2 52556  53.2187   2.9490 0001156  91.5987 268.5139 15.12110350106478,6907.902,95.231,530.566,528.969,0.0
52556.0,STARLINK-3763,PAYLOAD,2024-04-12 22:54:01,15.12113906,0.0001132,53.2185,359.0723,90.9387,269.1737,2.0152e-05,5.4e-07,0.0,0 STARLINK-3763,1 52556U 22051Z   24103.95418595  .00000054  00000-0  20152-4 0  9992,2 52556  53.2185 359.0723 0001132  90.9387 269.1737 15.12113906106608,6907.891,95.231,530.538,528.974,0.0
52556.0,STARLINK-3763,PAYLOAD,2024-04-13 02:04:23,15.12115532,0.00011,53.2184,358.4758,89.8074,270.3045,-2.9783e-06,-3.49e-06,0.0,0 STARLINK-3763,1 52556U 22051Z   24104.08637876 -.00000349  00000-0 -29783-5 0  9991,2 52556  53.2184 358.4758 0001100  89.8074 270.3045 15.12115532106695,6907.886,95.231,530.511,528.992,0.0
52556.0,STARLINK-3763,PAYLOAD,2024-04-13 21:06:31,15.12116921,0.0001016,53.2183,354.8973,95.3866,264.7243,6.1536e-06,-1.9e-06,0.0,0 STARLINK-3763,1 52556U 22051Z   24104.87953346 -.00000190  00000-0  61536-5 0  9996,2 52556  53.2183 354.8973 0001016  95.3866 264.7243 15.12116921106746,6907.882,95.231,530.449,529.045,0.0
52556.0,STARLINK-3763,PAYLOAD,2024-04-14 20:54:12,15.12115545,0.0001168,53.2194,350.424,89.1394,270.9733,-1.0201e-05,-4.75e-06,0.0,0 STARLINK-3763,1 52556U 22051Z   24105.87098208 -.00000475  00000-0 -10201-4 0  9993,2 52556  53.2194 350.4240 0001168  89.1394 270.9733 15.12115545106960,6907.886,95.231,530.558,528.945,0.0
52556.0,STARLINK-3763,PAYLOAD,2024-04-14 22:29:23,15.12116357,0.0001223,53.2188,350.1263,84.7346,275.3787,-7.5615e-06,-4.29e-06,0.0,0 STARLINK-3763,1 52556U 22051Z   24105.93707824 -.00000429  00000-0 -75615-5 0  9991,2 52556  53.2188 350.1263 0001223  84.7346 275.3787 15.12116357106909,6907.884,95.231,530.594,528.904,0.0
52556.0,STARLINK-3763,PAYLOAD,2024-04-15 01:39:44,15.12119638,0.0001349,53.2195,349.5291,80.2233,279.8913,1.7245e-05,3e-08,0.0,0 STARLINK-3763,1 52556U 22051Z   24106.06926834  .00000003  00000-0  17245-4 0  9990,2 52556  53.2195 349.5291 0001349  80.2233 279.8913 15.12119638106922,6907.874,95.231,530.671,528.807,0.0
52556.0,STARLINK-3763,PAYLOAD,2024-04-15 20:41:53,15.12116337,0.0001295,53.2191,345.9502,88.362,271.7521,3.3371e-05,2.84e-06,0.0,0 STARLINK-3763,1 52556U 22051Z   24106.86242436  .00000284  00000-0  33371-4 0  9996,2 52556  53.2191 345.9502 0001295  88.3620 271.7521 15.12116337107045,6907.884,95.231,530.644,528.854,0.0
52556.0,STARLINK-3763,PAYLOAD,2024-04-15 22:17:04,15.12115812,0.0001261,53.2192,345.6518,91.4724,268.6414,2.8176e-05,1.94e-06,0.0,0 STARLINK-3763,1 52556U 22051Z   24106.92852107  .00000194  00000-0  28176-4 0  9992,2 52556  53.2192 345.6518 0001261  91.4724 268.6414 15.12115812107125,6907.886,95.231,530.622,528.88,0.0
